TOMORROW-S1             
1 60479U 24149M   26068.72470524  .00008620  00000+0  28856-3 0  9996
2 60479  97.3791 149.6044 0001819 207.2040 152.9106 15.31198362 86867
STARLINK-34401          
1 64757U 25147C   26068.73181365  .00018918  00000+0  64941-3 0  9997
2 64757  53.1596 242.8826 0001061  53.5782 306.5317 15.30191190 38680
